#aV2009 11 10  0  0   .00000000      96 DD+AD WGS84 FIT  NGA
## 1557 172800.00000000   900.00000000 55145  .0000000000000
+   31     1  2  3  4  5  6  7  9 10 11 12 13 14 15 16 17 18
+         19 20 21 22 23 24 25 26 27 28 29 30 31 32  0  0  0
+          0  0  0  0  0  0  0  0  0  0  0  0  0  0  0  0  0
+          0  0  0  0  0  0  0  0  0  0  0  0  0  0  0  0  0
+          0  0  0  0  0  0  0  0  0  0  0  0  0  0  0  0  0
++         0  0  0  0  0  0  0  0  0  0  0  0  0  0  0  0  0
++         0  0  0  0  0  0  0  0  0  0  0  0  0  0  0  0  0
++         0  0  0  0  0  0  0  0  0  0  0  0  0  0  0  0  0
++         0  0  0  0  0  0  0  0  0  0  0  0  0  0  0  0  0
++         0  0  0  0  0  0  0  0  0  0  0  0  0  0  0  0  0
%c cc cc ccc ccc cccc cccc cccc cccc ccccc ccccc ccccc ccccc
%c cc cc ccc ccc cccc cccc cccc cccc ccccc ccccc ccccc ccccc
%f  0.0000000  0.000000000  0.00000000000  0.000000000000000
%f  0.0000000  0.000000000  0.00000000000  0.000000000000000
%i    0    0    0    0      0      0      0      0         0
%i    0    0    0    0      0      0      0      0         0
/*      NGA, ST. LOUIS,MO.                                  
/*   EPHEMERIS COMPUTED FROM  3 DAYS OF DATA                
/* CCCCCCCCCCCCCCCCCCCCCCCCCCCCCCCCCCCCCCCCCCCCCCCCCCCCCCCCC
/* CCCCCCCCCCCCCCCCCCCCCCCCCCCCCCCCCCCCCCCCCCCCCCCCCCCCCCCCC
*  2009 11 10  3  0   .00000000                                                 
P  1   4147.367017 -15164.993591 -21496.422920    -64.245421                    
V  1  27062.601386   -636.674562   5798.572153      -.020244                    
P  2  17441.395881  -2357.878986 -19838.147527    189.960651                    
V  2 -10123.540031  23166.268795 -12120.975164       .041960                    
P  3 -19285.693315  -2521.795498  17887.931350    472.458127                    
V  3 -13147.090890 -19464.504057 -16250.672831       .052703                    
P  4  12817.039518   9274.795545 -21465.957319   -351.786682                    
V  4 -13110.349322  23609.640312   2759.536045      -.181572                    
P  5  26348.375872  -2752.378177   2401.409802    -47.485617                    
V  5   3166.643891   2608.871103 -31516.409346       .071312                    
P  6 -19668.332641  -6315.291528  16927.095488    260.186356                    
V  6 -10361.717663 -18621.936117 -19091.513627       .022899                    
P  7  -5410.236693  24109.262649   9517.910908      8.002749                    
V  7  -7821.796690   9593.363832 -28859.083493      -.006970                    
P  9  15131.909571 -20468.696711   6822.564625     87.645781                    
V  9  -2116.773771   9587.011592  30578.746534       .020996                    
P 10  26723.319617    452.276689  -1164.444569    -27.913399                    
V 10  -1231.290139   2689.927552 -31382.508070      -.009196                    
P 11 -11366.396077  22921.573039   6160.677775    -28.415115                    
V 11  -2815.108819  -9362.443115  28908.604739      -.019210                    
P 12  18475.503891 -11124.162880 -15363.664330   -192.245211                    
V 12  19689.926068   1334.531570  22752.704854       .052998                    
P 13   3896.762884  23454.881681 -11943.875084    306.153221                    
V 13  -8411.274629 -12420.022993 -27434.312936       .001767                    
P 14 -14856.929980 -21853.971747  -3155.159246    -26.472916                    
V 14   -442.815506  -4527.590922  31918.835938       .048675                    
P 15  14735.667153  -5238.521329  21505.582847   -320.239801                    
V 15  14530.596135  23052.201297  -4264.259197       .003030                    
P 16 -26058.065856  -3017.764836  -4896.438296     -6.807349                    
V 16   6195.918812  -2349.690789 -30989.788518      -.041635                    
P 17  15678.682615  21268.868357  -3557.079801    100.892904                    
V 17     80.505640   5294.732954  31170.637679       .035509                    
P 18  -3128.155564 -15665.246976  21498.625776     26.510514                    
V 18  26755.827312   -480.700407   3210.997150       .027517                    
P 19 -14021.105782   6213.671888  21730.340463      2.062006                    
V 19 -12840.602272 -24323.880903  -1058.388016      -.019377                    
P 20 -13893.623652  13999.605957 -17891.022935     67.979573                    
V 20 -22631.790138   -463.079828  17385.372967      -.008718                    
P 21   1080.022220 -22708.474197  13492.716985    -20.428346                    
V 21  10989.938176 -13336.270624 -24462.596089      -.023633                    
P 22 -15965.730332 -12597.379890  17289.020510    186.719179                    
V 22  21664.906579  -2139.980952  18548.974543      -.008213                    
P 23  -6087.452145  16285.573972 -20018.100001    386.250950                    
V 23 -14366.839163 -21005.130288 -13033.173096      -.005152                    
P 24  13111.892765 -23244.814840    883.699268    235.340185                    
V 24   3022.204143    658.335019 -31328.963907       .029975                    
P 25  -8218.193611  25219.403628   3064.052253     11.227043                    
V 25  -3416.052912   2312.896097 -31562.047059       .174311                    
P 26 -10063.819962 -23869.571383   4007.861808      4.332121                    
V 26   4779.803459   4024.229860  32208.996223      -.019016                    
P 27  16826.096322 -17070.960950  12073.976840     98.567883                    
V 27  -4315.575444  13706.264831  26995.683525       .032645                    
P 28  13525.622309  13177.068162  19248.470739    -25.496114                    
V 28 -23372.833965   1121.530979  15724.044433       .002910                    
P 29  -1715.603223 -22390.770181 -14123.947625     73.066317                    
V 29  11043.373508  14472.562741 -24089.156011       .029484                    
P 30   6161.229226 -15484.920514 -21056.175603    191.982714                    
V 30  25874.172260  -1280.591753   8732.585168       .031785                    
P 31 -13248.636618  -6613.634140 -21835.567146    -61.404659                    
V 31  13219.157577 -24909.561769   -330.691841       .007937                    
P 32 -21468.223694   7930.014751 -12841.568642    161.032256                    
V 32 -16892.226280  -3383.714716  25699.859027      -.075786                    
EOF
